IRIDIUM 159             
1 43578U 18061K   23271.12114076  .00000159  00000+0  49554-4 0  9995
2 43578  86.3922 111.7738 0002181  87.4028 272.7417 14.34215707271046
IRIDIUM 180             
1 43922U 19002A   23271.46947566  .00000287  00000+0  95518-4 0  9992
2 43922  86.3969  48.4587 0002059 100.2416 259.9012 14.34216199246740
IRIDIUM 176             
1 43923U 19002B   23271.42263040  .00001935  00000+0  30285-3 0  9997
2 43923  86.6098  48.5119 0002255  91.2162 268.9314 14.72272650253181
IRIDIUM 168             
1 43924U 19002C   23270.90498761  .00000573  00000+0  19757-3 0  9998
2 43924  86.3975  48.7443 0002128  95.8312 264.3126 14.34214837246602
IRIDIUM 173             
1 43925U 19002D   23271.45044705  .00000447  00000+0  15267-3 0  9997
2 43925  86.3971  48.4456 0002207  93.7708 266.3740 14.34222003246679
IRIDIUM 169             
1 43926U 19002E   23271.48270733  .00000253  00000+0  76191-4 0  9992
2 43926  86.4173  80.0623 0004313  43.1441 317.0095 14.38609013247500
IRIDIUM 172             
1 43927U 19002F   23271.44410763  .00000711  00000+0  24675-3 0  9996
2 43927  86.3970  48.4533 0002134  95.5563 264.5876 14.34215278246670
IRIDIUM 175             
1 43928U 19002G   23270.73680346  .00002246  00000+0  35210-3 0  9996
2 43928  86.1535  36.8352 0002266  93.1408 267.0068 14.72255517253079
